NOAA 1                  
1 04793U 70106A   26064.59318324 -.00000029  00000+0  83119-4 0  9997
2 04793 101.3522 103.7960 0031710 188.8955 293.9172 12.54049258527705
NOAA 2 (ITOS-D)         
1 06235U 72082A   26064.51901021 -.00000037  00000+0  62102-4 0  9997
2 06235 102.0168  81.9251 0004014  13.2672 109.4150 12.53211739441960
NOAA 3                  
1 06920U 73086A   26064.56994324 -.00000041  00000+0  40652-4 0  9997
2 06920 102.2909  77.5083 0006190 316.6783 156.9394 12.40391667369051
NOAA 4                  
1 07529U 74089A   26064.57611135 -.00000048  00000+0 -11022-4 0  9991
2 07529 102.0074  76.2632 0009150  36.5428  75.6060 12.53201588346549
NOAA 5                  
1 09057U 76077A   26064.56904969 -.00000036  00000+0  74182-4 0  9999
2 09057 102.2954  50.0542 0009778 168.1543 307.4353 12.37828267241650
TIROS N                 
1 11060U 78096A   26064.58186820  .00000233  00000+0  13059-3 0  9992
2 11060  98.4638  90.2839 0010519 176.9143 183.2100 14.19336399664050
NOAA 6                  
1 11416U 79057A   26064.57835508  .00000444  00000+0  17005-3 0  9997
2 11416  98.5756  94.7568 0009500 199.2790 160.8037 14.35430217436092
NOAA 7                  
1 12553U 81059A   26064.42680167  .00000094  00000+0  67983-4 0  9990
2 12553  98.8068 132.5138 0011135 200.0803 159.9935 14.17772295310048
NOAA 8                  
1 13923U 83022A   26064.56541200  .00000213  00000+0  10043-3 0  9990
2 13923  98.7374  77.3492 0014438 197.7877 162.2802 14.29765057236262
NOAA 9                  
1 15427U 84123A   26064.63067554  .00000171  00000+0  10817-3 0  9999
2 15427  99.1100  88.8190 0013689 284.0106 185.5311 14.17037436128756
NOAA 10                 
1 16969U 86073A   26064.63343549  .00000237  00000+0  11105-3 0  9992
2 16969  98.6997  58.0343 0011145 302.1736 172.3905 14.29142391 54628
NOAA 11                 
1 19531U 88089A   26064.47564540  .00000098  00000+0  71652-4 0  9996
2 19531  98.6092  13.6582 0010114 232.6016 127.4238 14.15819576932803
NOAA 12                 
1 21263U 91032A   26064.61573483  .00000164  00000+0  85909-4 0  9999
2 21263  98.6149  54.6805 0013150 335.6379  24.4178 14.26715987810192
NOAA 13                 
1 22739U 93050A   26064.47374769  .00000174  00000+0  11491-3 0  9995
2 22739  98.6928  12.3386 0010513  67.8801 292.3487 14.13634678678728
NOAA 14                 
1 23455U 94089A   26064.57979841  .00000091  00000+0  68539-4 0  9991
2 23455  98.5016  38.9900 0010003  27.7639 332.4067 14.14654173608552
NOAA 15                 
1 25338U 98030A   26064.56210988  .00000204  00000+0  10121-3 0  9991
2 25338  98.5167  87.9511 0009138 293.7638  66.2584 14.27110688446518
NOAA 16                 
1 26536U 00055A   26064.56438638  .00000144  00000+0  97664-4 0  9997
2 26536  98.4707  84.2820 0009431 235.1893 124.8394 14.13896900609086
