[{"OBJECT_NAME":"NOAA 1","OBJECT_ID":"1970-106A","EPOCH":"2026-03-05T14:14:11.031936","MEAN_MOTION":12.54049258,"ECCENTRICITY":0.00317106,"INCLINATION":101.3522,"RA_OF_ASC_NODE":103.796,"ARG_OF_PERICENTER":188.8955,"MEAN_ANOMALY":293.9172,"EPHEMERIS_TYPE":0,"CLASSIFICATION_TYPE":"U","NORAD_CAT_ID":4793,"ELEMENT_SET_NO":999,"REV_AT_EPOCH":52770,"BSTAR":8.3118646e-5,"MEAN_MOTION_DOT":-2.9e-7,"MEAN_MOTION_DDOT":0},{"OBJECT_NAME":"NOAA 2 (ITOS-D)","OBJECT_ID":"1972-082A","EPOCH":"2026-03-05T12:27:22.482144","MEAN_MOTION":12.53211739,"ECCENTRICITY":0.00040141,"INCLINATION":102.0168,"RA_OF_ASC_NODE":81.9251,"ARG_OF_PERICENTER":13.2672,"MEAN_ANOMALY":109.415,"EPHEMERIS_TYPE":0,"CLASSIFICATION_TYPE":"U","NORAD_CAT_ID":6235,"ELEMENT_SET_NO":999,"REV_AT_EPOCH":44196,"BSTAR":6.2101737e-5,"MEAN_MOTION_DOT":-3.7e-7,"MEAN_MOTION_DDOT":0},{"OBJECT_NAME":"NOAA 3","OBJECT_ID":"1973-086A","EPOCH":"2026-03-05T13:40:43.095936","MEAN_MOTION":12.40391667,"ECCENTRICITY":0.00061902,"INCLINATION":102.2909,"RA_OF_ASC_NODE":77.5083,"ARG_OF_PERICENTER":316.6783,"MEAN_ANOMALY":156.9394,"EPHEMERIS_TYPE":0,"CLASSIFICATION_TYPE":"U","NORAD_CAT_ID":6920,"ELEMENT_SET_NO":999,"REV_AT_EPOCH":36905,"BSTAR":4.0651835e-5,"MEAN_MOTION_DOT":-4.1e-7,"MEAN_MOTION_DDOT":0},{"OBJECT_NAME":"NOAA 4","OBJECT_ID":"1974-089A","EPOCH":"2026-03-05T13:49:36.020640","MEAN_MOTION":12.53201588,"ECCENTRICITY":0.00091502,"INCLINATION":102.0074,"RA_OF_ASC_NODE":76.2632,"ARG_OF_PERICENTER":36.5428,"MEAN_ANOMALY":75.606,"EPHEMERIS_TYPE":0,"CLASSIFICATION_TYPE":"U","NORAD_CAT_ID":7529,"ELEMENT_SET_NO":999,"REV_AT_EPOCH":34654,"BSTAR":-1.1021695e-5,"MEAN_MOTION_DOT":-4.8e-7,"MEAN_MOTION_DDOT":0},{"OBJECT_NAME":"NOAA 5","OBJECT_ID":"1976-077A","EPOCH":"2026-03-05T13:39:25.893216","MEAN_MOTION":12.37828267,"ECCENTRICITY":0.00097782,"INCLINATION":102.2954,"RA_OF_ASC_NODE":50.0542,"ARG_OF_PERICENTER":168.1543,"MEAN_ANOMALY":307.4353,"EPHEMERIS_TYPE":0,"CLASSIFICATION_TYPE":"U","NORAD_CAT_ID":9057,"ELEMENT_SET_NO":999,"REV_AT_EPOCH":24165,"BSTAR":7.4181689e-5,"MEAN_MOTION_DOT":-3.6e-7,"MEAN_MOTION_DDOT":0},{"OBJECT_NAME":"TIROS N","OBJECT_ID":"1978-096A","EPOCH":"2026-03-05T13:57:53.412480","MEAN_MOTION":14.19336399,"ECCENTRICITY":0.0010519,"INCLINATION":98.4638,"RA_OF_ASC_NODE":90.2839,"ARG_OF_PERICENTER":176.9143,"MEAN_ANOMALY":183.21,"EPHEMERIS_TYPE":0,"CLASSIFICATION_TYPE":"U","NORAD_CAT_ID":11060,"ELEMENT_SET_NO":999,"REV_AT_EPOCH":66405,"BSTAR":0.00013059115,"MEAN_MOTION_DOT":2.33e-6,"MEAN_MOTION_DDOT":0},{"OBJECT_NAME":"NOAA 6","OBJECT_ID":"1979-057A","EPOCH":"2026-03-05T13:52:49.878912","MEAN_MOTION":14.35430217,"ECCENTRICITY":0.00095003,"INCLINATION":98.5756,"RA_OF_ASC_NODE":94.7568,"ARG_OF_PERICENTER":199.279,"MEAN_ANOMALY":160.8037,"EPHEMERIS_TYPE":0,"CLASSIFICATION_TYPE":"U","NORAD_CAT_ID":11416,"ELEMENT_SET_NO":999,"REV_AT_EPOCH":43609,"BSTAR":0.00017005174,"MEAN_MOTION_DOT":4.44e-6,"MEAN_MOTION_DDOT":0},{"OBJECT_NAME":"NOAA 7","OBJECT_ID":"1981-059A","EPOCH":"2026-03-05T10:14:35.664288","MEAN_MOTION":14.17772295,"ECCENTRICITY":0.0011135,"INCLINATION":98.8068,"RA_OF_ASC_NODE":132.5138,"ARG_OF_PERICENTER":200.0803,"MEAN_ANOMALY":159.9935,"EPHEMERIS_TYPE":0,"CLASSIFICATION_TYPE":"U","NORAD_CAT_ID":12553,"ELEMENT_SET_NO":999,"REV_AT_EPOCH":31004,"BSTAR":6.7982776e-5,"MEAN_MOTION_DOT":9.4e-7,"MEAN_MOTION_DDOT":0},{"OBJECT_NAME":"NOAA 8","OBJECT_ID":"1983-022A","EPOCH":"2026-03-05T13:34:11.596800","MEAN_MOTION":14.29765057,"ECCENTRICITY":0.0014438,"INCLINATION":98.7374,"RA_OF_ASC_NODE":77.3492,"ARG_OF_PERICENTER":197.7877,"MEAN_ANOMALY":162.2802,"EPHEMERIS_TYPE":0,"CLASSIFICATION_TYPE":"U","NORAD_CAT_ID":13923,"ELEMENT_SET_NO":999,"REV_AT_EPOCH":23626,"BSTAR":0.00010042759,"MEAN_MOTION_DOT":2.13e-6,"MEAN_MOTION_DDOT":0},{"OBJECT_NAME":"NOAA 9","OBJECT_ID":"1984-123A","EPOCH":"2026-03-05T15:08:10.366656","MEAN_MOTION":14.17037436,"ECCENTRICITY":0.00136891,"INCLINATION":99.11,"RA_OF_ASC_NODE":88.819,"ARG_OF_PERICENTER":284.0106,"MEAN_ANOMALY":185.5311,"EPHEMERIS_TYPE":0,"CLASSIFICATION_TYPE":"U","NORAD_CAT_ID":15427,"ELEMENT_SET_NO":999,"REV_AT_EPOCH":12875,"BSTAR":0.00010816646,"MEAN_MOTION_DOT":1.71e-6,"MEAN_MOTION_DDOT":0},{"OBJECT_NAME":"NOAA 10","OBJECT_ID":"1986-073A","EPOCH":"2026-03-05T15:12:08.826336","MEAN_MOTION":14.29142391,"ECCENTRICITY":0.00111455,"INCLINATION":98.6997,"RA_OF_ASC_NODE":58.0343,"ARG_OF_PERICENTER":302.1736,"MEAN_ANOMALY":172.3905,"EPHEMERIS_TYPE":0,"CLASSIFICATION_TYPE":"U","NORAD_CAT_ID":16969,"ELEMENT_SET_NO":999,"REV_AT_EPOCH":5462,"BSTAR":0.00011105139,"MEAN_MOTION_DOT":2.37e-6,"MEAN_MOTION_DDOT":0},{"OBJECT_NAME":"NOAA 11","OBJECT_ID":"1988-089A","EPOCH":"2026-03-05T11:24:55.762560","MEAN_MOTION":14.15819576,"ECCENTRICITY":0.00101143,"INCLINATION":98.6092,"RA_OF_ASC_NODE":13.6582,"ARG_OF_PERICENTER":232.6016,"MEAN_ANOMALY":127.4238,"EPHEMERIS_TYPE":0,"CLASSIFICATION_TYPE":"U","NORAD_CAT_ID":19531,"ELEMENT_SET_NO":999,"REV_AT_EPOCH":93280,"BSTAR":7.1652299e-5,"MEAN_MOTION_DOT":9.8e-7,"MEAN_MOTION_DDOT":0},{"OBJECT_NAME":"NOAA 12","OBJECT_ID":"1991-032A","EPOCH":"2026-03-05T14:46:39.489312","MEAN_MOTION":14.26715987,"ECCENTRICITY":0.00131504,"INCLINATION":98.6149,"RA_OF_ASC_NODE":54.6805,"ARG_OF_PERICENTER":335.6379,"MEAN_ANOMALY":24.4178,"EPHEMERIS_TYPE":0,"CLASSIFICATION_TYPE":"U","NORAD_CAT_ID":21263,"ELEMENT_SET_NO":999,"REV_AT_EPOCH":81019,"BSTAR":8.5909302e-5,"MEAN_MOTION_DOT":1.64e-6,"MEAN_MOTION_DDOT":0},{"OBJECT_NAME":"NOAA 13","OBJECT_ID":"1993-050A","EPOCH":"2026-03-05T11:22:11.800416","MEAN_MOTION":14.13634678,"ECCENTRICITY":0.00105139,"INCLINATION":98.6928,"RA_OF_ASC_NODE":12.3386,"ARG_OF_PERICENTER":67.8801,"MEAN_ANOMALY":292.3487,"EPHEMERIS_TYPE":0,"CLASSIFICATION_TYPE":"U","NORAD_CAT_ID":22739,"ELEMENT_SET_NO":999,"REV_AT_EPOCH":67872,"BSTAR":0.00011491,"MEAN_MOTION_DOT":1.74e-6,"MEAN_MOTION_DDOT":0},{"OBJECT_NAME":"NOAA 14","OBJECT_ID":"1994-089A","EPOCH":"2026-03-05T13:54:54.582624","MEAN_MOTION":14.14654173,"ECCENTRICITY":0.00100033,"INCLINATION":98.5016,"RA_OF_ASC_NODE":38.99,"ARG_OF_PERICENTER":27.7639,"MEAN_ANOMALY":332.4067,"EPHEMERIS_TYPE":0,"CLASSIFICATION_TYPE":"U","NORAD_CAT_ID":23455,"ELEMENT_SET_NO":999,"REV_AT_EPOCH":60855,"BSTAR":6.8538646e-5,"MEAN_MOTION_DOT":9.1e-7,"MEAN_MOTION_DDOT":0},{"OBJECT_NAME":"NOAA 15","OBJECT_ID":"1998-030A","EPOCH":"2026-03-05T13:29:26.293632","MEAN_MOTION":14.27110688,"ECCENTRICITY":0.00091385,"INCLINATION":98.5167,"RA_OF_ASC_NODE":87.9511,"ARG_OF_PERICENTER":293.7638,"MEAN_ANOMALY":66.2584,"EPHEMERIS_TYPE":0,"CLASSIFICATION_TYPE":"U","NORAD_CAT_ID":25338,"ELEMENT_SET_NO":999,"REV_AT_EPOCH":44651,"BSTAR":0.00010121389,"MEAN_MOTION_DOT":2.04e-6,"MEAN_MOTION_DDOT":0},{"OBJECT_NAME":"NOAA 16","OBJECT_ID":"2000-055A","EPOCH":"2026-03-05T13:32:42.983232","MEAN_MOTION":14.138969,"ECCENTRICITY":0.00094314,"INCLINATION":98.4707,"RA_OF_ASC_NODE":84.282,"ARG_OF_PERICENTER":235.1893,"MEAN_ANOMALY":124.8394,"EPHEMERIS_TYPE":0,"CLASSIFICATION_TYPE":"U","NORAD_CAT_ID":26536,"ELEMENT_SET_NO":999,"REV_AT_EPOCH":60908,"BSTAR":9.7663775e-5,"MEAN_MOTION_DOT":1.44e-6,"MEAN_MOTION_DDOT":0}]
